{"type": "FeatureCollection", "features": [ {"type": "Feature", "properties": {"norad_id": 43010, "name": "FENGYUN 3D", "group": "weather", "lat": 64.77220951950162, "lon": 148.69582289980062, "alt_km": 819.9686262003688, "timestamp": "2025-12-08T19:31:48.474633+00:00", "meta": {"OBJECT_NAME": "FENGYUN 3D", "OBJECT_ID": "2017-072A", "EPOCH": "2025-12-08T05:27:54.164736", "MEAN_MOTION": 14.19682044, "ECCENTRICITY": 8.039e-05, "INCLINATION": 98.9889, "RA_OF_ASC_NODE": 308.4706, "ARG_OF_PERICENTER": 195.4995, "MEAN_ANOMALY": 164.6156, "EPHEMERIS_TYPE": 0, "CLASSIFICATION_TYPE": "U", "NORAD_CAT_ID": 43010, "ELEMENT_SET_NO": 999, "REV_AT_EPOCH": 41789, "BSTAR": 0.00013662197, "MEAN_MOTION_DOT": 2.43e-06, "MEAN_MOTION_DDOT": 0}, "tle": {"line1": "1 43010U 17072A   25342.22771024  .00000243  00000+0  13662-3 0  9995", "line2": "2 43010  98.9889 308.4706 0000803 195.4995 164.6156 14.19682044417899"}}, "geometry": {"type": "Point", "coordinates": [148.69582289980062, 64.77220951950162]}}, {"type": "Feature", "properties": {"norad_id": 43013, "name": "NOAA 20 (JPSS-1)", "group": "weather", "lat": -81.07081638504728, "lon": 20.255831024223546, "alt_km": 835.8218237658557, "timestamp": "2025-12-08T19:31:48.474643+00:00", "meta": {"OBJECT_NAME": "NOAA 20 (JPSS-1)", "OBJECT_ID": "2017-073A", "EPOCH": "2025-12-08T06:25:42.661632", "MEAN_MOTION": 14.19523914, "ECCENTRICITY": 0.00021305, "INCLINATION": 98.7592, "RA_OF_ASC_NODE": 278.6137, "ARG_OF_PERICENTER": 93.9553, "MEAN_ANOMALY": 266.1867, "EPHEMERIS_TYPE": 0, "CLASSIFICATION_TYPE": "U", "NORAD_CAT_ID": 43013, "ELEMENT_SET_NO": 999, "REV_AT_EPOCH": 41738, "BSTAR": 0.00011304123, "MEAN_MOTION_DOT": 1.94e-06, "MEAN_MOTION_DDOT": 0}, "tle": {"line1": "1 43013U 17073A   25342.26785488  .00000194  00000+0  11304-3 0  9998", "line2": "2 43013  98.7592 278.6137 0002130  93.9553 266.1867 14.19523914417385"}}, "geometry": {"type": "Point", "coordinates": [20.255831024223546, -81.07081638504728]}}, {"type": "Feature", "properties": {"norad_id": 43226, "name": "GOES 17", "group": "weather", "lat": -0.11374622705685068, "lon": -78.73337243346239, "alt_km": 35771.68735636098, "timestamp": "2025-12-08T19:31:48.474653+00:00", "meta": {"OBJECT_NAME": "GOES 17", "OBJECT_ID": "2018-022A", "EPOCH": "2025-12-08T06:10:47.136000", "MEAN_MOTION": 1.00270783, "ECCENTRICITY": 0.00035049, "INCLINATION": 0.4481, "RA_OF_ASC_NODE": 89.1915, "ARG_OF_PERICENTER": 185.2197, "MEAN_ANOMALY": 166.0526, "EPHEMERIS_TYPE": 0, "CLASSIFICATION_TYPE": "U", "NORAD_CAT_ID": 43226, "ELEMENT_SET_NO": 999, "REV_AT_EPOCH": 2850, "BSTAR": 0, "MEAN_MOTION_DOT": -1.8e-06, "MEAN_MOTION_DDOT": 0}, "tle": {"line1": "1 43226U 18022A   25342.25749000 -.00000180  00000+0  00000+0 0  9991", "line2": "2 43226   0.4481  89.1915 0003504 185.2197 166.0526  1.00270783 28503"}}, "geometry": {"type": "Point", "coordinates": [-78.73337243346239, -0.11374622705685068]}}, {"type": "Feature", "properties": {"norad_id": 43491, "name": "FENGYUN 2H", "group": "weather", "lat": 0.40771679904461156, "lon": 90.10634141512267, "alt_km": 35797.38082860767, "timestamp": "2025-12-08T19:31:48.474664+00:00", "meta": {"OBJECT_NAME": "FENGYUN 2H", "OBJECT_ID": "2018-050A", "EPOCH": "2025-12-08T01:59:49.269696", "MEAN_MOTION": 1.00271307, "ECCENTRICITY": 0.00028716, "INCLINATION": 2.5386, "RA_OF_ASC_NODE": 81.38, "ARG_OF_PERICENTER": 165.706, "MEAN_ANOMALY": 299.3283, "EPHEMERIS_TYPE": 0, "CLASSIFICATION_TYPE": "U", "NORAD_CAT_ID": 43491, "ELEMENT_SET_NO": 999, "REV_AT_EPOCH": 2752, "BSTAR": 0, "MEAN_MOTION_DOT": -1.28e-06, "MEAN_MOTION_DDOT": 0}, "tle": {"line1": "1 43491U 18050A   25342.08320914 -.00000128  00000+0  00000+0 0  9998", "line2": "2 43491   2.5386  81.3800 0002871 165.7060 299.3283  1.00271307 27523"}}, "geometry": {"type": "Point", "coordinates": [90.10634141512267, 0.40771679904461156]}}, {"type": "Feature", "properties": {"norad_id": 43689, "name": "METOP-C", "group": "weather", "lat": 21.127231150350294, "lon": 37.25392649258396, "alt_km": 819.0966075333072, "timestamp": "2025-12-08T19:31:48.474675+00:00", "meta": {"OBJECT_NAME": "METOP-C", "OBJECT_ID": "2018-087A", "EPOCH": "2025-12-08T05:54:55.685376", "MEAN_MOTION": 14.21509419, "ECCENTRICITY": 0.00015231, "INCLINATION": 98.6935, "RA_OF_ASC_NODE": 40.0848, "ARG_OF_PERICENTER": 49.9597, "MEAN_ANOMALY": 310.1714, "EPHEMERIS_TYPE": 0, "CLASSIFICATION_TYPE": "U", "NORAD_CAT_ID": 43689, "ELEMENT_SET_NO": 999, "REV_AT_EPOCH": 36770, "BSTAR": 0.00015358573, "MEAN_MOTION_DOT": 2.92e-06, "MEAN_MOTION_DDOT": 0}, "tle": {"line1": "1 43689U 18087A   25342.24647784  .00000292  00000+0  15359-3 0  9990", "line2": "2 43689  98.6935  40.0848 0001523  49.9597 310.1714 14.21509419367706"}}, "geometry": {"type": "Point", "coordinates": [37.25392649258396, 21.127231150350294]}}, {"type": "Feature", "properties": {"norad_id": 43823, "name": "GEO-KOMPSAT-2A", "group": "weather", "lat": 0.035692630601012826, "lon": 139.03007679205078, "alt_km": 35786.01451040169, "timestamp": "2025-12-08T19:31:48.474684+00:00", "meta": {"OBJECT_NAME": "GEO-KOMPSAT-2A", "OBJECT_ID": "2018-100A", "EPOCH": "2025-12-08T07:21:58.089312", "MEAN_MOTION": 1.0027093, "ECCENTRICITY": 1.878e-05, "INCLINATION": 0.0574, "RA_OF_ASC_NODE": 113.9423, "ARG_OF_PERICENTER": 86.1343, "MEAN_ANOMALY": 116.0018, "EPHEMERIS_TYPE": 0, "CLASSIFICATION_TYPE": "U", "NORAD_CAT_ID": 43823, "ELEMENT_SET_NO": 999, "REV_AT_EPOCH": 2571, "BSTAR": 0, "MEAN_MOTION_DOT": -3.41e-06, "MEAN_MOTION_DDOT": 0}, "tle": {"line1": "1 43823U 18100A   25342.30692233 -.00000341  00000+0  00000+0 0  9991", "line2": "2 43823   0.0574 113.9423 0000187  86.1343 116.0018  1.00270930 25716"}}, "geometry": {"type": "Point", "coordinates": [139.03007679205078, 0.035692630601012826]}}, {"type": "Feature", "properties": {"norad_id": 44387, "name": "METEOR-M2 2", "group": "weather", "lat": 54.97165770077823, "lon": -50.41839992126759, "alt_km": 805.7491278010812, "timestamp": "2025-12-08T19:31:48.474701+00:00", "meta": {"OBJECT_NAME": "METEOR-M2 2", "OBJECT_ID": "2019-038A", "EPOCH": "2025-12-08T05:46:48.679680", "MEAN_MOTION": 14.24288832, "ECCENTRICITY": 0.00011394, "INCLINATION": 98.8969, "RA_OF_ASC_NODE": 321.9147, "ARG_OF_PERICENTER": 156.711, "MEAN_ANOMALY": 203.412, "EPHEMERIS_TYPE": 0, "CLASSIFICATION_TYPE": "U", "NORAD_CAT_ID": 44387, "ELEMENT_SET_NO": 999, "REV_AT_EPOCH": 33411, "BSTAR": 0.00017227507, "MEAN_MOTION_DOT": 3.52e-06, "MEAN_MOTION_DDOT": 0}, "tle": {"line1": "1 44387U 19038A   25342.24084120  .00000352  00000+0  17228-3 0  9996", "line2": "2 44387  98.8969 321.9147 0001139 156.7110 203.4120 14.24288832334115"}}, "geometry": {"type": "Point", "coordinates": [-50.41839992126759, 54.97165770077823]}}, {"type": "Feature", "properties": {"norad_id": 47719, "name": "ARKTIKA-M 1", "group": "weather", "lat": 63.153497878121954, "lon": 171.3988240374049, "alt_km": 39267.681941787916, "timestamp": "2025-12-08T19:31:48.474717+00:00", "meta": {"OBJECT_NAME": "ARKTIKA-M 1", "OBJECT_ID": "2021-016A", "EPOCH": "2025-12-01T02:41:41.634816", "MEAN_MOTION": 2.00613156, "ECCENTRICITY": 0.71974708, "INCLINATION": 63.1756, "RA_OF_ASC_NODE": 85.6045, "ARG_OF_PERICENTER": 269.084, "MEAN_ANOMALY": 15.7076, "EPHEMERIS_TYPE": 0, "CLASSIFICATION_TYPE": "U", "NORAD_CAT_ID": 47719, "ELEMENT_SET_NO": 999, "REV_AT_EPOCH": 3481, "BSTAR": 0, "MEAN_MOTION_DOT": -1.2e-07, "MEAN_MOTION_DDOT": 0}, "tle": {"line1": "1 47719U 21016A   25335.11228744 -.00000012  00000+0  00000+0 0  9997", "line2": "2 47719  63.1756  85.6045 7197470 269.0840  15.7076  2.00613156 34816"}}, "geometry": {"type": "Point", "coordinates": [171.3988240374049, 63.153497878121954]}}, {"type": "Feature", "properties": {"norad_id": 49008, "name": "FENGYUN 3E", "group": "weather", "lat": 74.88750361261393, "lon": -51.378686285636796, "alt_km": 818.9569764003818, "timestamp": "2025-12-08T19:31:48.474730+00:00", "meta": {"OBJECT_NAME": "FENGYUN 3E", "OBJECT_ID": "2021-062A", "EPOCH": "2025-12-08T05:38:09.487392", "MEAN_MOTION": 14.19879139, "ECCENTRICITY": 5.832e-05, "INCLINATION": 98.7476, "RA_OF_ASC_NODE": 342.8095, "ARG_OF_PERICENTER": 292.904, "MEAN_ANOMALY": 67.2074, "EPHEMERIS_TYPE": 0, "CLASSIFICATION_TYPE": "U", "NORAD_CAT_ID": 49008, "ELEMENT_SET_NO": 999, "REV_AT_EPOCH": 22948, "BSTAR": 5.132356e-05, "MEAN_MOTION_DOT": 6.5e-07, "MEAN_MOTION_DDOT": 0}, "tle": {"line1": "1 49008U 21062A   25342.23483203  .00000065  00000+0  51324-4 0  9992", "line2": "2 49008  98.7476 342.8095 0000583 292.9040  67.2074 14.19879139229480"}}, "geometry": {"type": "Point", "coordinates": [-51.378686285636796, 74.88750361261393]}}, {"type": "Feature", "properties": {"norad_id": 51850, "name": "GOES 18", "group": "weather", "lat": -0.00647074993151603, "lon": -126.24350270053753, "alt_km": 35784.94591119041, "timestamp": "2025-12-08T19:31:48.474740+00:00", "meta": {"OBJECT_NAME": "GOES 18", "OBJECT_ID": "2022-021A", "EPOCH": "2025-12-08T02:40:45.348672", "MEAN_MOTION": 1.00271247, "ECCENTRICITY": 7.644e-05, "INCLINATION": 0.0084, "RA_OF_ASC_NODE": 76.3845, "ARG_OF_PERICENTER": 225.4198, "MEAN_ANOMALY": 38.5104, "EPHEMERIS_TYPE": 0, "CLASSIFICATION_TYPE": "U", "NORAD_CAT_ID": 51850, "ELEMENT_SET_NO": 999, "REV_AT_EPOCH": 467, "BSTAR": 0, "MEAN_MOTION_DOT": 9.9e-07, "MEAN_MOTION_DDOT": 0}, "tle": {"line1": "1 51850U 22021A   25342.11163598  .00000099  00000+0  00000+0 0  9992", "line2": "2 51850   0.0084  76.3845 0000764 225.4198  38.5104  1.00271247  4676"}}, "geometry": {"type": "Point", "coordinates": [-126.24350270053753, -0.00647074993151603]}}]}